{"type": "FeatureCollection", "features": [ {"type": "Feature", "properties": {"norad_id": 39574, "name": "GPM-CORE", "group": "resource", "lat": 60.18365147408364, "lon": -62.00909004456086, "alt_km": 430.9473293362871, "timestamp": "2025-12-03T13:52:09.222278+00:00", "meta": {"OBJECT_NAME": "GPM-CORE", "OBJECT_ID": "2014-009C", "EPOCH": "2025-12-03T07:20:23.006112", "MEAN_MOTION": 15.45167531, "ECCENTRICITY": 0.00105666, "INCLINATION": 64.9754, "RA_OF_ASC_NODE": 244.2978, "ARG_OF_PERICENTER": 268.6885, "MEAN_ANOMALY": 91.3046, "EPHEMERIS_TYPE": 0, "CLASSIFICATION_TYPE": "U", "NORAD_CAT_ID": 39574, "ELEMENT_SET_NO": 999, "REV_AT_EPOCH": 66755, "BSTAR": 0.00041245202, "MEAN_MOTION_DOT": 0.00019509, "MEAN_MOTION_DDOT": 0}, "tle": {"line1": "1 39574U 14009C   25337.30582183  .00019509  00000+0  41245-3 0  9994", "line2": "2 39574  64.9754 244.2978 0010566 268.6885  91.3046 15.45167531667552"}}, "geometry": {"type": "Point", "coordinates": [-62.00909004456086, 60.18365147408364]}}, {"type": "Feature", "properties": {"norad_id": 39634, "name": "SENTINEL-1A", "group": "resource", "lat": -79.9701246054562, "lon": 108.53181538034349, "alt_km": 703.9777141501681, "timestamp": "2025-12-03T13:52:09.222288+00:00", "meta": {"OBJECT_NAME": "SENTINEL-1A", "OBJECT_ID": "2014-016A", "EPOCH": "2025-12-03T07:43:30.274752", "MEAN_MOTION": 14.5920143, "ECCENTRICITY": 0.00012519, "INCLINATION": 98.1805, "RA_OF_ASC_NODE": 342.7024, "ARG_OF_PERICENTER": 88.7026, "MEAN_ANOMALY": 271.4317, "EPHEMERIS_TYPE": 0, "CLASSIFICATION_TYPE": "U", "NORAD_CAT_ID": 39634, "ELEMENT_SET_NO": 999, "REV_AT_EPOCH": 62145, "BSTAR": 7.5170835e-05, "MEAN_MOTION_DOT": 3.09e-06, "MEAN_MOTION_DDOT": 0}, "tle": {"line1": "1 39634U 14016A   25337.32187818  .00000309  00000+0  75171-4 0  9991", "line2": "2 39634  98.1805 342.7024 0001251  88.7026 271.4317 14.59201430621452"}}, "geometry": {"type": "Point", "coordinates": [108.53181538034349, -79.9701246054562]}}, {"type": "Feature", "properties": {"norad_id": 39731, "name": "KAZEOSAT 1", "group": "resource", "lat": 79.2150159884632, "lon": -0.7090541233758866, "alt_km": 743.6222153839135, "timestamp": "2025-12-03T13:52:09.222299+00:00", "meta": {"OBJECT_NAME": "KAZEOSAT 1", "OBJECT_ID": "2014-024A", "EPOCH": "2025-12-03T08:29:21.663744", "MEAN_MOTION": 14.42053619, "ECCENTRICITY": 0.00010609, "INCLINATION": 98.3445, "RA_OF_ASC_NODE": 49.4713, "ARG_OF_PERICENTER": 99.0225, "MEAN_ANOMALY": 261.1085, "EPHEMERIS_TYPE": 0, "CLASSIFICATION_TYPE": "U", "NORAD_CAT_ID": 39731, "ELEMENT_SET_NO": 999, "REV_AT_EPOCH": 61033, "BSTAR": 0.00013342261, "MEAN_MOTION_DOT": 3.95e-06, "MEAN_MOTION_DDOT": 0}, "tle": {"line1": "1 39731U 14024A   25337.35372296  .00000395  00000+0  13342-3 0  9993", "line2": "2 39731  98.3445  49.4713 0001060  99.0225 261.1085 14.42053619610331"}}, "geometry": {"type": "Point", "coordinates": [-0.7090541233758866, 79.2150159884632]}}, {"type": "Feature", "properties": {"norad_id": 39766, "name": "ALOS-2", "group": "resource", "lat": 4.111450708234094, "lon": -106.87166517910491, "alt_km": 633.1360461942113, "timestamp": "2025-12-03T13:52:09.222309+00:00", "meta": {"OBJECT_NAME": "ALOS-2", "OBJECT_ID": "2014-029A", "EPOCH": "2025-12-03T08:12:28.623744", "MEAN_MOTION": 14.79451134, "ECCENTRICITY": 0.00015393, "INCLINATION": 97.9237, "RA_OF_ASC_NODE": 72.3222, "ARG_OF_PERICENTER": 107.1227, "MEAN_ANOMALY": 253.0153, "EPHEMERIS_TYPE": 0, "CLASSIFICATION_TYPE": "U", "NORAD_CAT_ID": 39766, "ELEMENT_SET_NO": 999, "REV_AT_EPOCH": 62262, "BSTAR": 0.00074217202, "MEAN_MOTION_DOT": 5.493e-05, "MEAN_MOTION_DDOT": 0}, "tle": {"line1": "1 39766U 14029A   25337.34199796  .00005493  00000+0  74217-3 0  9999", "line2": "2 39766  97.9237  72.3222 0001539 107.1227 253.0153 14.79451134622622"}}, "geometry": {"type": "Point", "coordinates": [-106.87166517910491, 4.111450708234094]}}, {"type": "Feature", "properties": {"norad_id": 40010, "name": "KAZEOSAT 2", "group": "resource", "lat": -76.33845927288964, "lon": -30.710410137207123, "alt_km": 615.6491504543064, "timestamp": "2025-12-03T13:52:09.222320+00:00", "meta": {"OBJECT_NAME": "KAZEOSAT 2", "OBJECT_ID": "2014-033A", "EPOCH": "2025-12-03T07:51:25.861824", "MEAN_MOTION": 14.85142816, "ECCENTRICITY": 0.00072377, "INCLINATION": 97.5511, "RA_OF_ASC_NODE": 182.1275, "ARG_OF_PERICENTER": 241.9712, "MEAN_ANOMALY": 118.0772, "EPHEMERIS_TYPE": 0, "CLASSIFICATION_TYPE": "U", "NORAD_CAT_ID": 40010, "ELEMENT_SET_NO": 999, "REV_AT_EPOCH": 61988, "BSTAR": 0.00014358139, "MEAN_MOTION_DOT": 1.179e-05, "MEAN_MOTION_DDOT": 0}, "tle": {"line1": "1 40010U 14033A   25337.32738266  .00001179  00000+0  14358-3 0  9994", "line2": "2 40010  97.5511 182.1275 0007237 241.9712 118.0772 14.85142816619884"}}, "geometry": {"type": "Point", "coordinates": [-30.710410137207123, -76.33845927288964]}}, {"type": "Feature", "properties": {"norad_id": 40011, "name": "HODOYOSHI-4", "group": "resource", "lat": -82.41724300179935, "lon": -108.72069025510503, "alt_km": 600.9753980640917, "timestamp": "2025-12-03T13:52:09.222331+00:00", "meta": {"OBJECT_NAME": "HODOYOSHI-4", "OBJECT_ID": "2014-033B", "EPOCH": "2025-12-03T07:48:42.350688", "MEAN_MOTION": 14.87424302, "ECCENTRICITY": 0.00226585, "INCLINATION": 97.5415, "RA_OF_ASC_NODE": 166.6733, "ARG_OF_PERICENTER": 232.9309, "MEAN_ANOMALY": 126.9837, "EPHEMERIS_TYPE": 0, "CLASSIFICATION_TYPE": "U", "NORAD_CAT_ID": 40011, "ELEMENT_SET_NO": 999, "REV_AT_EPOCH": 61968, "BSTAR": 0.00030120796, "MEAN_MOTION_DOT": 2.686e-05, "MEAN_MOTION_DDOT": 0}, "tle": {"line1": "1 40011U 14033B   25337.32549017  .00002686  00000+0  30121-3 0  9999", "line2": "2 40011  97.5415 166.6733 0022658 232.9309 126.9837 14.87424302619683"}}, "geometry": {"type": "Point", "coordinates": [-108.72069025510503, -82.41724300179935]}}, {"type": "Feature", "properties": {"norad_id": 40013, "name": "DEIMOS-2", "group": "resource", "lat": -65.9571213069774, "lon": 16.247555439781234, "alt_km": 596.66000525033, "timestamp": "2025-12-03T13:52:09.222341+00:00", "meta": {"OBJECT_NAME": "DEIMOS-2", "OBJECT_ID": "2014-033D", "EPOCH": "2025-12-03T07:56:24.000576", "MEAN_MOTION": 14.9290178, "ECCENTRICITY": 7.874e-05, "INCLINATION": 97.6072, "RA_OF_ASC_NODE": 213.4407, "ARG_OF_PERICENTER": 85.9783, "MEAN_ANOMALY": 274.1527, "EPHEMERIS_TYPE": 0, "CLASSIFICATION_TYPE": "U", "NORAD_CAT_ID": 40013, "ELEMENT_SET_NO": 999, "REV_AT_EPOCH": 60849, "BSTAR": 0.00035091313, "MEAN_MOTION_DOT": 3.584e-05, "MEAN_MOTION_DDOT": 0}, "tle": {"line1": "1 40013U 14033D   25337.33083334  .00003584  00000+0  35091-3 0  9996", "line2": "2 40013  97.6072 213.4407 0000787  85.9783 274.1527 14.92901780608490"}}, "geometry": {"type": "Point", "coordinates": [16.247555439781234, -65.9571213069774]}}, {"type": "Feature", "properties": {"norad_id": 40015, "name": "HODOYOSHI-3", "group": "resource", "lat": -74.12837328361486, "lon": 171.8982041174817, "alt_km": 599.488739261642, "timestamp": "2025-12-03T13:52:09.222352+00:00", "meta": {"OBJECT_NAME": "HODOYOSHI-3", "OBJECT_ID": "2014-033F", "EPOCH": "2025-12-03T04:30:18.782496", "MEAN_MOTION": 14.84751983, "ECCENTRICITY": 0.00318393, "INCLINATION": 97.6193, "RA_OF_ASC_NODE": 143.4383, "ARG_OF_PERICENTER": 280.6559, "MEAN_ANOMALY": 79.1071, "EPHEMERIS_TYPE": 0, "CLASSIFICATION_TYPE": "U", "NORAD_CAT_ID": 40015, "ELEMENT_SET_NO": 999, "REV_AT_EPOCH": 61853, "BSTAR": 0.00031270815, "MEAN_MOTION_DOT": 2.622e-05, "MEAN_MOTION_DDOT": 0}, "tle": {"line1": "1 40015U 14033F   25337.18771739  .00002622  00000+0  31271-3 0  9992", "line2": "2 40015  97.6193 143.4383 0031839 280.6559  79.1071 14.84751983618530"}}, "geometry": {"type": "Point", "coordinates": [171.8982041174817, -74.12837328361486]}}, {"type": "Feature", "properties": {"norad_id": 40053, "name": "SPOT 7", "group": "resource", "lat": 76.09465825107988, "lon": 4.788234491420814, "alt_km": 682.641086876698, "timestamp": "2025-12-03T13:52:09.222362+00:00", "meta": {"OBJECT_NAME": "SPOT 7", "OBJECT_ID": "2014-034A", "EPOCH": "2025-12-03T08:34:42.594816", "MEAN_MOTION": 14.60714072, "ECCENTRICITY": 0.00015191, "INCLINATION": 98.0919, "RA_OF_ASC_NODE": 39.6487, "ARG_OF_PERICENTER": 97.0482, "MEAN_ANOMALY": 263.0892, "EPHEMERIS_TYPE": 0, "CLASSIFICATION_TYPE": "U", "NORAD_CAT_ID": 40053, "ELEMENT_SET_NO": 999, "REV_AT_EPOCH": 60854, "BSTAR": 0.00019407192, "MEAN_MOTION_DOT": 9e-06, "MEAN_MOTION_DDOT": 0}, "tle": {"line1": "1 40053U 14034A   25337.35743744  .00000900  00000+0  19407-3 0  9993", "line2": "2 40053  98.0919  39.6487 0001519  97.0482 263.0892 14.60714072608548"}}, "geometry": {"type": "Point", "coordinates": [4.788234491420814, 76.09465825107988]}}, {"type": "Feature", "properties": {"norad_id": 40072, "name": "SKYSAT-B", "group": "resource", "lat": -37.80562909522979, "lon": 94.2505307934612, "alt_km": 609.9986727527466, "timestamp": "2025-12-03T13:52:09.222372+00:00", "meta": {"OBJECT_NAME": "SKYSAT-B", "OBJECT_ID": "2014-037D", "EPOCH": "2025-12-03T06:25:57.587232", "MEAN_MOTION": 14.87268522, "ECCENTRICITY": 0.00053785, "INCLINATION": 98.3593, "RA_OF_ASC_NODE": 280.475, "ARG_OF_PERICENTER": 179.4829, "MEAN_ANOMALY": 180.6392, "EPHEMERIS_TYPE": 0, "CLASSIFICATION_TYPE": "U", "NORAD_CAT_ID": 40072, "ELEMENT_SET_NO": 999, "REV_AT_EPOCH": 61683, "BSTAR": 0.00034601113, "MEAN_MOTION_DOT": 3.059e-05, "MEAN_MOTION_DDOT": 0}, "tle": {"line1": "1 40072U 14037D   25337.26802763  .00003059  00000+0  34601-3 0  9995", "line2": "2 40072  98.3593 280.4750 0005378 179.4829 180.6392 14.87268522616839"}}, "geometry": {"type": "Point", "coordinates": [94.2505307934612, -37.80562909522979]}}]}